[{"OBJECT_NAME":"STARLINK-4394","OBJECT_ID":"2022-099C","EPOCH":"2026-03-09T21:11:02.458176","MEAN_MOTION":15.05649111,"ECCENTRICITY":0.00012135,"INCLINATION":97.6021,"RA_OF_ASC_NODE":191.4652,"ARG_OF_PERICENTER":230.8564,"MEAN_ANOMALY":129.2555,"EPHEMERIS_TYPE":0,"CLASSIFICATION_TYPE":"U","NORAD_CAT_ID":53467,"ELEMENT_SET_NO":999,"REV_AT_EPOCH":19607,"BSTAR":0.00045067952,"MEAN_MOTION_DOT":6.448e-5,"MEAN_MOTION_DDOT":0},{"OBJECT_NAME":"COSMOS 886 DEB","OBJECT_ID":"1976-126BB","EPOCH":"2026-03-09T11:56:28.762368","MEAN_MOTION":13.92875098,"ECCENTRICITY":0.05307589,"INCLINATION":65.7939,"RA_OF_ASC_NODE":106.2794,"ARG_OF_PERICENTER":113.8415,"MEAN_ANOMALY":251.9212,"EPHEMERIS_TYPE":0,"CLASSIFICATION_TYPE":"U","NORAD_CAT_ID":9961,"ELEMENT_SET_NO":999,"REV_AT_EPOCH":38673,"BSTAR":0.00065937265,"MEAN_MOTION_DOT":2.683e-5,"MEAN_MOTION_DDOT":0}]
